TEVEL2-6                
1 63215U 25052F   26068.64958975  .00021046  00000+0  70909-3 0  9996
2 63215  97.4016 325.0381 0004769  95.6604 264.5181 15.30760889 54861
STARLINK-33804          
1 63511U 25071U   26068.47445332  .00024618  00000+0  84097-3 0  9996
2 63511  53.1582 141.1182 0001263  58.6313 301.4811 15.30183426 52365
